TRANSPORTER-16 OBJECT CJ
1 68496U 26067CJ  26105.86561818  .00001112  00000+0  11544-3 0  9993
2 68496  97.7562  65.1097 0002807 121.1643 238.9851 14.91923233  2436
