{
  "norad_id": 68496,
  "name": "TRANSPORTER-16 OBJECT CJ",
  "history": [
    {
      "epoch": "2026-04-15T20:46:29.409888Z",
      "apogee_km": 593.8963533295719,
      "perigee_km": 589.9819585603927,
      "latitude_deg": -4.07620238751551e-05,
      "longitude_deg": -90.5343832725504,
      "height_km": 595.9902457580835,
      "semi_major_axis_km": 6970.076155944982,
      "eccentricity": 0.0002808,
      "inclination_deg": 97.7562,
      "raan_deg": 65.1097,
      "arg_perigee_deg": 121.1643,
      "mean_anomaly_deg": 238.9851,
      "mean_motion_rev_day": 14.91923233
    }
  ]
}